[
    {
        "Altitude(m)": 610405.2894072143,
        "Argument of Periapsis(deg)": 0.0,
        "Eccentricity": 0.0,
        "Inclination(deg)": 60.0,
        "Latitude(deg)": 52.11117881293066,
        "Longitude(deg)": -137.52246378286426,
        "Mean Anomaly(deg)": 114.54549999999999,
        "RAAN(deg)": 190.0,
        "Satellite Name": "Test1 843",
        "Satellite Number": 843,
        "Semi-Major Axis(m)": 6980739.136638005,
        "Time(s)": 0
    },
    {
        "Altitude(m)": 610321.861832284,
        "Argument of Periapsis(deg)": 0.00010418945913296404,
        "Eccentricity": 0.0,
        "Inclination(deg)": 60.0,
        "Latitude(deg)": 51.74589254941744,
        "Longitude(deg)": -136.75357308136464,
        "Mean Anomaly(deg)": 115.16560614546184,
        "RAAN(deg)": 189.99957995086027,
        "Satellite Name": "Test1 843",
        "Satellite Number": 843,
        "Semi-Major Axis(m)": 6980739.136638005,
        "Time(s)": 10
    }
]